NORAD_CAT_ID,OBJECT_NAME,OBJECT_TYPE,EPOCH,MEAN_MOTION,ECCENTRICITY,INCLINATION,RA_OF_ASC_NODE,ARG_OF_PERICENTER,MEAN_ANOMALY,BSTAR,MEAN_MOTION_DOT,MEAN_MOTION_DDOT,TLE_LINE0,TLE_LINE1,TLE_LINE2,SEMIMAJOR_AXIS,PERIOD,APOGEE,PERIGEE,DECAYED
53601.0,STARLINK-4675,PAYLOAD,2023-10-08 06:58:27,15.08870985,0.000156,53.215,249.7091,109.9712,250.1448,0.00074459,0.00011592,0.0,0 STARLINK-4675,1 53601U 22104P   23281.29060108  .00011592  00000-0  74459-3 0  9996,2 53601  53.2150 249.7091 0001560 109.9712 250.1448 15.08870985 61569,6917.786,95.436,540.73,538.572,0.0
53601.0,STARLINK-4675,PAYLOAD,2023-10-08 14:55:23,15.0885815,0.0001206,53.2153,248.2207,83.2328,276.8801,0.00034858,5.267e-05,0.0,0 STARLINK-4675,1 53601U 22104P   23281.62180118  .00005267  00000-0  34858-3 0  9998,2 53601  53.2153 248.2207 0001206  83.2328 276.8801 15.08858150 61613,6917.825,95.436,540.524,538.856,0.0
53601.0,STARLINK-4675,PAYLOAD,2023-10-08 21:16:56,15.08838855,0.0001637,53.2153,247.0332,90.6368,269.4812,-9.3779e-05,-1.78e-05,0.0,0 STARLINK-4675,1 53601U 22104P   23281.88676838 -.00001780  00000-0 -93779-4 0  9991,2 53601  53.2153 247.0332 0001637  90.6368 269.4812 15.08838855 62344,6917.884,95.438,540.881,538.616,0.0
53601.0,STARLINK-4675,PAYLOAD,2023-10-09 02:03:05,15.08846946,0.0001671,53.2153,246.1385,116.0758,244.0406,1.048e-05,-1.21e-06,0.0,0 STARLINK-4675,1 53601U 22104P   23282.08548277 -.00000121  00000-0  10480-4 0  9994,2 53601  53.2153 246.1385 0001671 116.0758 244.0406 15.08846946 61680,6917.859,95.437,540.88,538.568,0.0
53601.0,STARLINK-4675,PAYLOAD,2023-10-09 06:49:15,15.08847337,0.0001377,53.2141,245.2475,100.2947,259.82,0.00010783,1.429e-05,0.0,0 STARLINK-4675,1 53601U 22104P   23282.28420361  .00001429  00000-0  10783-3 0  9995,2 53601  53.2141 245.2475 0001377 100.2947 259.8200 15.08847337 62407,6917.858,95.437,540.676,538.77,0.0
53601.0,STARLINK-4675,PAYLOAD,2023-10-09 14:46:11,15.08834938,0.0001351,53.2147,243.7609,99.7435,260.3709,-0.00018761,-3.272e-05,0.0,0 STARLINK-4675,1 53601U 22104P   23282.61540786 -.00003272  00000-0 -18761-3 0  9990,2 53601  53.2147 243.7609 0001351  99.7435 260.3709 15.08834938 61763,6917.896,95.438,540.695,538.826,0.0
53601.0,STARLINK-4675,PAYLOAD,2023-10-09 21:07:44,15.08831977,0.0001715,53.2154,242.5698,99.6607,260.4578,4.6431e-05,4.51e-06,0.0,0 STARLINK-4675,1 53601U 22104P   23282.88037234  .00000451  00000-0  46431-4 0  9998,2 53601  53.2154 242.5698 0001715  99.6607 260.4578 15.08831977 62496,6917.905,95.438,540.956,538.583,0.0
53601.0,STARLINK-4675,PAYLOAD,2023-10-10 06:40:03,15.08847406,0.0001891,53.2161,240.787,96.4288,263.6919,0.00076054,0.00011839,0.0,0 STARLINK-4675,1 53601U 22104P   23283.27781254  .00011839  00000-0  76054-3 0  9995,2 53601  53.2161 240.7870 0001891  96.4288 263.6919 15.08847406 61869,6917.858,95.437,541.031,538.415,0.0
53601.0,STARLINK-4675,PAYLOAD,2023-10-10 20:58:31,15.08833465,0.0001831,53.214,238.1115,96.0339,264.0862,0.0001631,2.308e-05,0.0,0 STARLINK-4675,1 53601U 22104P   23283.87398021  .00002308  00000-0  16310-3 0  9997,2 53601  53.2140 238.1115 0001831  96.0339 264.0862 15.08833465 62645,6917.9,95.438,541.032,538.499,0.0
53601.0,STARLINK-4675,PAYLOAD,2023-10-11 03:20:04,15.08833816,0.0001679,53.2157,236.9216,108.7885,251.329,0.00037444,5.675e-05,0.0,0 STARLINK-4675,1 53601U 22104P   23284.13894202  .00005675  00000-0  37444-3 0  9990,2 53601  53.2157 236.9216 0001679 108.7885 251.3290 15.08833816 61999,6917.899,95.438,540.926,538.603,0.0
53601.0,STARLINK-4675,PAYLOAD,2023-10-11 06:30:50,15.08838403,0.0001788,53.215,236.3259,111.775,248.3432,0.00051908,7.982e-05,0.0,0 STARLINK-4675,1 53601U 22104P   23284.27142179  .00007982  00000-0  51908-3 0  9998,2 53601  53.2150 236.3259 0001788 111.7750 248.3432 15.08838403 62700,6917.885,95.438,540.987,538.513,0.0
53601.0,STARLINK-4675,PAYLOAD,2023-10-11 14:27:47,15.08828061,0.0001278,53.2158,234.84,96.7606,263.3532,0.00038528,5.847e-05,0.0,0 STARLINK-4675,1 53601U 22104P   23284.60262768  .00005847  00000-0  38528-3 0  9993,2 53601  53.2158 234.8400 0001278  96.7606 263.3532 15.08828061 62061,6917.917,95.438,540.666,538.898,0.0
53601.0,STARLINK-4675,PAYLOAD,2023-10-12 03:10:52,15.08850742,0.0001533,53.2156,232.4599,99.9759,260.1406,0.0015445,0.00024385,0.0,0 STARLINK-4675,1 53601U 22104P   23285.13254780  .00024385  00000-0  15445-2 0  9997,2 53601  53.2156 232.4599 0001533  99.9759 260.1406 15.08850742 62145,6917.848,95.437,540.773,538.652,0.0
53601.0,STARLINK-4675,PAYLOAD,2023-10-13 03:01:38,15.0886627,0.0001307,53.2165,227.9989,103.6697,256.4441,0.00099429,0.00015583,0.0,0 STARLINK-4675,1 53601U 22104P   23286.12614113  .00015583  00000-0  99429-3 0  9992,2 53601  53.2165 227.9989 0001307 103.6697 256.4441 15.08866270 62296,6917.8,95.436,540.569,538.761,0.0
53601.0,STARLINK-4675,PAYLOAD,2023-10-13 06:12:24,15.08869643,0.0001302,53.2166,227.4046,103.5482,256.5655,0.001056,0.00016572,0.0,0 STARLINK-4675,1 53601U 22104P   23286.25861894  .00016572  00000-0  10560-2 0  9993,2 53601  53.2166 227.4046 0001302 103.5482 256.5655 15.08869643 63007,6917.79,95.436,540.555,538.754,0.0
53601.0,STARLINK-4675,PAYLOAD,2023-10-13 20:30:53,15.08852346,0.0001337,53.2163,224.7301,95.3363,264.7782,0.00065633,0.00010176,0.0,0 STARLINK-4675,1 53601U 22104P   23286.85478035  .00010176  00000-0  65633-3 0  9996,2 53601  53.2163 224.7301 0001337  95.3363 264.7782 15.08852346 62409,6917.843,95.437,540.633,538.783,0.0
53601.0,STARLINK-4675,PAYLOAD,2023-10-14 12:24:44,15.08851635,0.0001167,53.2174,221.7565,92.7944,267.3181,0.00049506,7.602e-05,0.0,0 STARLINK-4675,1 53601U 22104P   23287.51717716  .00007602  00000-0  49506-3 0  9993,2 53601  53.2174 221.7565 0001167  92.7944 267.3181 15.08851635 63196,6917.845,95.437,540.517,538.903,0.0
53601.0,STARLINK-4675,PAYLOAD,2023-10-14 20:21:40,15.08815502,0.0001703,53.2174,220.2697,90.1846,269.9341,-0.00030785,-5.181e-05,0.0,0 STARLINK-4675,1 53601U 22104P   23287.84838696 -.00005181  00000-0 -30785-3 0  9991,2 53601  53.2174 220.2697 0001703  90.1846 269.9341 15.08815502 62553,6917.955,95.439,540.998,538.642,0.0
53601.0,STARLINK-4675,PAYLOAD,2023-10-15 12:15:32,15.08837157,0.0001679,53.2164,217.296,85.1338,274.9846,0.0014816,0.00023369,0.0,0 STARLINK-4675,1 53601U 22104P   23288.51079497  .00023369  00000-0  14816-2 0  9994,2 53601  53.2164 217.2960 0001679  85.1338 274.9846 15.08837157 62650,6917.889,95.438,540.916,538.593,0.0
53601.0,STARLINK-4675,PAYLOAD,2023-10-16 12:06:19,15.08855689,0.0002151,53.2158,212.8323,91.622,268.5018,0.00064886,0.00010058,0.0,0 STARLINK-4675,1 53601U 22104P   23289.50439245  .00010058  00000-0  64886-3 0  9999,2 53601  53.2158 212.8323 0002151  91.6220 268.5018 15.08855689 62802,6917.832,95.437,541.185,538.209,0.0
53601.0,STARLINK-4675,PAYLOAD,2023-10-17 11:57:06,15.0885281,0.0002925,53.2163,208.3718,87.5851,272.5476,0.00054897,8.463e-05,0.0,0 STARLINK-4675,1 53601U 22104P   23290.49799050  .00008463  00000-0  54897-3 0  9990,2 53601  53.2163 208.3718 0002925  87.5851 272.5476 15.08852810 62951,6917.841,95.437,541.73,537.683,0.0
53601.0,STARLINK-4675,PAYLOAD,2023-10-18 02:15:34,15.08846752,0.0001483,53.2152,205.699,94.5025,265.6137,0.00045114,6.901e-05,0.0,0 STARLINK-4675,1 53601U 22104P   23291.09414404  .00006901  00000-0  45114-3 0  9991,2 53601  53.2152 205.6990 0001483  94.5025 265.6137 15.08846752 63732,6917.86,95.437,540.751,538.699,0.0
53601.0,STARLINK-4675,PAYLOAD,2023-10-18 11:47:53,15.08839501,0.0001676,53.2158,203.9129,95.176,264.9423,0.00023152,3.398e-05,0.0,0 STARLINK-4675,1 53601U 22104P   23291.49158904  .00003398  00000-0  23152-3 0  9990,2 53601  53.2158 203.9129 0001676  95.1760 264.9423 15.08839501 63105,6917.882,95.438,540.906,538.587,0.0
53601.0,STARLINK-4675,PAYLOAD,2023-10-19 03:41:44,15.08857449,0.0001667,53.2147,200.9422,85.3906,274.7276,0.00087503,0.00013672,0.0,0 STARLINK-4675,1 53601U 22104P   23292.15398742  .00013672  00000-0  87503-3 0  9996,2 53601  53.2147 200.9422 0001667  85.3906 274.7276 15.08857449 63206,6917.827,95.436,540.845,538.539,0.0
53601.0,STARLINK-4675,PAYLOAD,2023-10-20 03:32:30,15.08867661,0.0001609,53.2156,196.4796,100.4434,259.6739,0.00083452,0.00013028,0.0,0 STARLINK-4675,1 53601U 22104P   23293.14757864  .00013028  00000-0  83452-3 0  9994,2 53601  53.2156 196.4796 0001609 100.4434 259.6739 15.08867661 63359,6917.796,95.436,540.774,538.548,0.0
53601.0,STARLINK-4675,PAYLOAD,2023-10-20 17:50:59,15.08847206,0.0001678,53.214,193.8045,84.3625,275.7559,0.00034897,5.271e-05,0.0,0 STARLINK-4675,1 53601U 22104P   23293.74374054  .00005271  00000-0  34897-3 0  9996,2 53601  53.2140 193.8045 0001678  84.3625 275.7559 15.08847206 63440,6917.858,95.437,540.884,538.563,0.0
53601.0,STARLINK-4675,PAYLOAD,2023-10-20 22:37:08,15.08853238,0.0001327,53.2151,192.9131,89.642,270.4724,0.00086443,0.00013501,0.0,0 STARLINK-4675,1 53601U 22104P   23293.94245887  .00013501  00000-0  86443-3 0  9998,2 53601  53.2151 192.9131 0001327  89.6420 270.4724 15.08853238 64168,6917.84,95.437,540.623,538.787,0.0
53601.0,STARLINK-4675,PAYLOAD,2023-10-21 00:12:31,15.08858317,0.0001326,53.2157,192.6158,90.1564,269.958,0.0011891,0.00018697,0.0,0 STARLINK-4675,1 53601U 22104P   23294.00869834  .00018697  00000-0  11891-2 0  9995,2 53601  53.2157 192.6158 0001326  90.1564 269.9580 15.08858317 63485,6917.824,95.436,540.607,538.772,0.0
53601.0,STARLINK-4675,PAYLOAD,2023-10-21 17:41:46,15.0884655,0.000128,53.2159,189.3421,108.5481,251.565,0.00079407,0.00012374,0.0,0 STARLINK-4675,1 53601U 22104P   23294.73733836  .00012374  00000-0  79407-3 0  9991,2 53601  53.2159 189.3421 0001280 108.5481 251.5650 15.08846550 63597,6917.86,95.437,540.611,538.84,0.0
53601.0,STARLINK-4675,PAYLOAD,2023-10-21 22:27:55,15.08845149,0.0001466,53.2156,188.451,109.9788,250.1362,0.00068107,0.00010569,0.0,0 STARLINK-4675,1 53601U 22104P   23294.93605808  .00010569  00000-0  68107-3 0  9999,2 53601  53.2156 188.4510 0001466 109.9788 250.1362 15.08845149 64313,6917.865,95.437,540.744,538.715,0.0
